MAKERSAT 0              
1 43016U 17073D   26092.14186172  .00029460  00000+0  86123-3 0  9994
2 43016  97.4740 334.2118 0114498 182.0628 178.0156 15.28871114454833
SIRION PATHFINDER-2     
1 43759U 18099B   26092.31761348  .00007254  00000+0  40460-3 0  9991
2 43759  97.4340 143.1855 0008568 191.8747 168.2284 15.13829715401141
CORVUS BC4              
1 43767U 18099K   26092.09086423  .00004656  00000+0  27581-3 0  9991
2 43767  97.4158 137.2993 0006840 261.2994  98.7462 15.11860233400907
M2 PATHFINDER           
1 45727U 20037E   26092.02759305  .00002542  00000+0  18673-3 0  9997
2 45727  97.8155 282.4084 0012635  54.8019 305.4388 15.04325267314042
NETSAT-4                
1 46504U 20068U   26091.96981317  .00021997  00000+0  52906-3 0  9999
2 46504  97.8636  94.2331 0004326 213.9060 146.1910 15.41321850304029
NETSAT-3                
1 46505U 20068V   26091.98007635  .00022470  00000+0  56378-3 0  9998
2 46505  97.8674  92.5657 0003569 236.3040 123.7865 15.40033827303942
NETSAT-1                
1 46506U 20068W   26091.93134022  .00017154  00000+0  54380-3 0  9999
2 46506  97.8747  87.7028 0003151 276.3116  83.7765 15.32783840303613
NETSAT-2                
1 46507U 20068X   26092.22766870  .00033812  00000+0  77259-3 0  9994
2 46507  97.8647  94.1699 0001911 249.4279 110.6762 15.42780721304010
GREENCUBE (IO-117)      
1 53109U 22080E   26090.98863878 -.00000003  00000+0  00000+0 0  9996
2 53109  70.1536 325.1039 0008975 306.3934  53.5898  6.42583190 87104
SITRO-AIS 5 (KATYS)     
1 57176U 23091L   26092.26477829  .00018705  00000+0  69073-3 0  9993
2 57176  97.5132 155.5164 0011748  18.6400 341.5267 15.27734563152742
SITRO-AIS 6 (CHIRKIN)   
1 57192U 23091AC  26092.27635516  .00009170  00000+0  37200-3 0  9994
2 57192  97.5138 155.0241 0012602  21.6986 338.4783 15.24776212152719
SITRO-AIS 8 (ANOKHIN)   
1 57193U 23091AD  26092.27640857  .00020580  00000+0  70638-3 0  9999
2 57193  97.5126 156.8271 0010764  15.7780 344.3793 15.30120436152830
SITRO-AIS 7 (FARTUSHNIY)
1 57194U 23091AE  26092.26494353  .00009404  00000+0  38449-3 0  9993
2 57194  97.5137 154.8740 0012517  22.6271 337.5516 15.24503978152704
SITRO-AIS 10 (BURDAEV)  
1 57199U 23091AK  26092.28186331  .00030544  00000+0  87663-3 0  9995
2 57199  97.5141 161.1560 0006179 355.4226   4.6960 15.35791059153100
SITRO-AIS 9 (SHCHUKIN)  
1 57201U 23091AM  26092.28604476  .00028351  00000+0  82464-3 0  9991
2 57201  97.5139 160.9450 0006421 355.2613   4.8568 15.35385365153097
SITRO-AIS 12 (SMIRENNIY)
1 57204U 23091AQ  26092.29049738  .00029378  00000+0  84741-3 0  9999
2 57204  97.5151 161.3709 0005912 348.9664  11.1448 15.35643904153112
SITRO-AIS 11 (SHEFFER)  
1 57208U 23091AU  26092.25822723  .00029397  00000+0  83805-3 0  9993
2 57208  97.5149 161.5404 0005833 349.0174  11.0941 15.36012396153121
SITRO-AIS 25            
1 59066U 24039R   26092.31620596  .00007301  00000+0  57682-3 0  9996
2 59066  95.3929 182.9730 0144845 232.7509 126.0432 14.92852594113405
SITRO-AIS 26            
1 59067U 24039S   26092.30757979  .00007021  00000+0  55720-3 0  9992
2 59067  95.3929 182.8800 0145180 233.3066 125.4748 14.92661957113393
SITRO-AIS 27            
1 59068U 24039T   26092.29864380  .00004794  00000+0  37829-3 0  9990
2 59068  95.3933 183.1113 0144293 232.1133 126.6971 14.93060958113415
SITRO-AIS 28            
1 59071U 24039U   26092.27785472  .00005573  00000+0  43915-3 0  9995
2 59071  95.3939 183.1398 0144032 231.9853 126.8298 14.93097129113411
GRBBETA                 
1 60237U 24128C   26092.34555254  .00005389  00000+0  37217-3 0  9994
2 60237  61.9884 122.2331 0049195 118.7078 241.8972 15.06032829 94844
OOV-CUBE (TUBSAT-30)    
1 60240U 24128F   26092.32441744  .00003183  00000+0  24797-3 0  9993
2 60240  61.9935 130.0287 0052564 117.2231 243.4230 15.02402296 94717
ROBUSTA-3A (MEDITERRAN*)
1 60243U 24128J   26092.23425074  .00009296  00000+0  55758-3 0  9996
2 60243  61.9848 116.5981 0049780 112.4161 248.2218 15.10515642 94941
LASARSAT                
1 62391U 24247Q   26091.95783420  .00036221  00000+0  84135-3 0  9993
2 62391  44.9769 329.0698 0005084 225.9716 134.0754 15.41784240 71534
CROCUBE                 
1 62394U 24247T   26092.03383709  .00040242  00000+0  89326-3 0  9997
2 62394  44.9742 327.0177 0004683 225.2520 134.7988 15.43097248 71564
FORESAIL-1 PRIME        
1 66778U 25276DS  26092.14193618  .00006412  00000+0  31874-3 0  9996
2 66778  97.4243 166.8312 0003022  44.2831 315.8645 15.17981604 18868
KNACKSAT-2              
1 67683U 98067XZ  26092.02490752  .00046055  00000+0  70546-3 0  9992
2 67683  51.6312 315.7350 0010357 271.4198  88.5606 15.53816312  8413
